CCSDS_OMM_VERS = 2.0
CREATION_DATE  = 
ORIGINATOR     = 

OBJECT_NAME    = STARLINK-35714
OBJECT_ID      = 2025-244J
CENTER_NAME    = EARTH
REF_FRAME      = TEME
TIME_SYSTEM    = UTC
MEAN_ELEMENT_THEORY = SGP/SGP4

EPOCH          = 2025-11-12T22:00:01.999584
MEAN_MOTION    = 15.65240378
ECCENTRICITY   = .00010088
INCLINATION    = 53.1591
RA_OF_ASC_NODE = 57.2694
ARG_OF_PERICENTER = 66.3472
MEAN_ANOMALY   = 207.7469

EPHEMERIS_TYPE = 0
CLASSIFICATION_TYPE = U
NORAD_CAT_ID   = 66214
ELEMENT_SET_NO = 999
REV_AT_EPOCH   = 341
BSTAR          = -.22998048E-1
MEAN_MOTION_DOT = -.2038735E-1
MEAN_MOTION_DDOT = 0

CCSDS_OMM_VERS = 2.0
CREATION_DATE  = 
ORIGINATOR     = 

OBJECT_NAME    = STARLINK-35712
OBJECT_ID      = 2025-244K
CENTER_NAME    = EARTH
REF_FRAME      = TEME
TIME_SYSTEM    = UTC
MEAN_ELEMENT_THEORY = SGP/SGP4

EPOCH          = 2025-11-12T22:00:01.999584
MEAN_MOTION    = 15.65234877
ECCENTRICITY   = .0000975
INCLINATION    = 53.1589
RA_OF_ASC_NODE = 57.2614
ARG_OF_PERICENTER = 60.1113
MEAN_ANOMALY   = 217.8187

EPHEMERIS_TYPE = 0
CLASSIFICATION_TYPE = U
NORAD_CAT_ID   = 66215
ELEMENT_SET_NO = 999
REV_AT_EPOCH   = 341
BSTAR          = -.22887768E-1
MEAN_MOTION_DOT = -.2029751E-1
MEAN_MOTION_DDOT = 0

CCSDS_OMM_VERS = 2.0
CREATION_DATE  = 
ORIGINATOR     = 

OBJECT_NAME    = STARLINK-35709
OBJECT_ID      = 2025-244L
CENTER_NAME    = EARTH
REF_FRAME      = TEME
TIME_SYSTEM    = UTC
MEAN_ELEMENT_THEORY = SGP/SGP4

EPOCH          = 2025-11-12T22:00:01.999584
MEAN_MOTION    = 15.65234807
ECCENTRICITY   = .00010581
INCLINATION    = 53.1590
RA_OF_ASC_NODE = 57.2816
ARG_OF_PERICENTER = 71.5859
MEAN_ANOMALY   = 196.7615

EPHEMERIS_TYPE = 0
CLASSIFICATION_TYPE = U
NORAD_CAT_ID   = 66216
ELEMENT_SET_NO = 999
REV_AT_EPOCH   = 341
BSTAR          = -.22913557E-1
MEAN_MOTION_DOT = -.2031813E-1
MEAN_MOTION_DDOT = 0

CCSDS_OMM_VERS = 2.0
CREATION_DATE  = 
ORIGINATOR     = 

OBJECT_NAME    = STARLINK-35700
OBJECT_ID      = 2025-244M
CENTER_NAME    = EARTH
REF_FRAME      = TEME
TIME_SYSTEM    = UTC
MEAN_ELEMENT_THEORY = SGP/SGP4

EPOCH          = 2025-11-12T22:00:01.999584
MEAN_MOTION    = 15.65236107
ECCENTRICITY   = .00009883
INCLINATION    = 53.1591
RA_OF_ASC_NODE = 57.2777
ARG_OF_PERICENTER = 63.9106
MEAN_ANOMALY   = 206.3522

EPHEMERIS_TYPE = 0
CLASSIFICATION_TYPE = U
NORAD_CAT_ID   = 66217
ELEMENT_SET_NO = 999
REV_AT_EPOCH   = 341
BSTAR          = -.22911556E-1
MEAN_MOTION_DOT = -.2031697E-1
MEAN_MOTION_DDOT = 0

CCSDS_OMM_VERS = 2.0
CREATION_DATE  = 
ORIGINATOR     = 

OBJECT_NAME    = STARLINK-35722
OBJECT_ID      = 2025-244N
CENTER_NAME    = EARTH
REF_FRAME      = TEME
TIME_SYSTEM    = UTC
MEAN_ELEMENT_THEORY = SGP/SGP4

EPOCH          = 2025-11-12T22:00:01.999584
MEAN_MOTION    = 15.65236367
ECCENTRICITY   = .00010973
INCLINATION    = 53.1591
RA_OF_ASC_NODE = 57.2737
ARG_OF_PERICENTER = 69.1876
MEAN_ANOMALY   = 202.9904

EPHEMERIS_TYPE = 0
CLASSIFICATION_TYPE = U
NORAD_CAT_ID   = 66218
ELEMENT_SET_NO = 999
REV_AT_EPOCH   = 341
BSTAR          = -.22915064E-1
MEAN_MOTION_DOT = -.2032072E-1
MEAN_MOTION_DDOT = 0

CCSDS_OMM_VERS = 2.0
CREATION_DATE  = 
ORIGINATOR     = 

OBJECT_NAME    = STARLINK-35737
OBJECT_ID      = 2025-244P
CENTER_NAME    = EARTH
REF_FRAME      = TEME
TIME_SYSTEM    = UTC
MEAN_ELEMENT_THEORY = SGP/SGP4

EPOCH          = 2025-11-12T22:00:01.999584
MEAN_MOTION    = 15.65237141
ECCENTRICITY   = .0001038
INCLINATION    = 53.1592
RA_OF_ASC_NODE = 57.2659
ARG_OF_PERICENTER = 62.5041
MEAN_ANOMALY   = 213.5062

EPHEMERIS_TYPE = 0
CLASSIFICATION_TYPE = U
NORAD_CAT_ID   = 66219
ELEMENT_SET_NO = 999
REV_AT_EPOCH   = 358
BSTAR          = -.22920751E-1
MEAN_MOTION_DOT = -.2032524E-1
MEAN_MOTION_DDOT = 0

CCSDS_OMM_VERS = 2.0
CREATION_DATE  = 
ORIGINATOR     = 

OBJECT_NAME    = STARLINK-35677
OBJECT_ID      = 2025-244Q
CENTER_NAME    = EARTH
REF_FRAME      = TEME
TIME_SYSTEM    = UTC
MEAN_ELEMENT_THEORY = SGP/SGP4

EPOCH          = 2025-11-12T22:00:01.999584
MEAN_MOTION    = 15.65236167
ECCENTRICITY   = .00009617
INCLINATION    = 53.1591
RA_OF_ASC_NODE = 57.2579
ARG_OF_PERICENTER = 60.3995
MEAN_ANOMALY   = 219.4457

EPHEMERIS_TYPE = 0
CLASSIFICATION_TYPE = U
NORAD_CAT_ID   = 66220
ELEMENT_SET_NO = 999
REV_AT_EPOCH   = 341
BSTAR          = -.22892998E-1
MEAN_MOTION_DOT = -.203024E-1
MEAN_MOTION_DDOT = 0

CCSDS_OMM_VERS = 2.0
CREATION_DATE  = 
ORIGINATOR     = 

OBJECT_NAME    = STARLINK-35704
OBJECT_ID      = 2025-244R
CENTER_NAME    = EARTH
REF_FRAME      = TEME
TIME_SYSTEM    = UTC
MEAN_ELEMENT_THEORY = SGP/SGP4

EPOCH          = 2025-11-12T22:00:01.999584
MEAN_MOTION    = 15.65235059
ECCENTRICITY   = .00010256
INCLINATION    = 53.1590
RA_OF_ASC_NODE = 57.2534
ARG_OF_PERICENTER = 64.2891
MEAN_ANOMALY   = 217.4734

EPHEMERIS_TYPE = 0
CLASSIFICATION_TYPE = U
NORAD_CAT_ID   = 66221
ELEMENT_SET_NO = 999
REV_AT_EPOCH   = 341
BSTAR          = -.22891705E-1
MEAN_MOTION_DOT = -.2030109E-1
MEAN_MOTION_DDOT = 0

CCSDS_OMM_VERS = 2.0
CREATION_DATE  = 
ORIGINATOR     = 

OBJECT_NAME    = STARLINK-35666
OBJECT_ID      = 2025-244S
CENTER_NAME    = EARTH
REF_FRAME      = TEME
TIME_SYSTEM    = UTC
MEAN_ELEMENT_THEORY = SGP/SGP4

EPOCH          = 2025-11-12T22:00:01.999584
MEAN_MOTION    = 15.65240586
ECCENTRICITY   = .00011183
INCLINATION    = 53.1590
RA_OF_ASC_NODE = 57.2457
ARG_OF_PERICENTER = 73.4228
MEAN_ANOMALY   = 212.1680

EPHEMERIS_TYPE = 0
CLASSIFICATION_TYPE = U
NORAD_CAT_ID   = 66222
ELEMENT_SET_NO = 999
REV_AT_EPOCH   = 353
BSTAR          = -.22934708E-1
MEAN_MOTION_DOT = -.2033917E-1
MEAN_MOTION_DDOT = 0

CCSDS_OMM_VERS = 2.0
CREATION_DATE  = 
ORIGINATOR     = 

OBJECT_NAME    = STARLINK-35664
OBJECT_ID      = 2025-244T
CENTER_NAME    = EARTH
REF_FRAME      = TEME
TIME_SYSTEM    = UTC
MEAN_ELEMENT_THEORY = SGP/SGP4

EPOCH          = 2025-11-12T22:00:01.999584
MEAN_MOTION    = 15.65239581
ECCENTRICITY   = .00010306
INCLINATION    = 53.1588
RA_OF_ASC_NODE = 57.2503
ARG_OF_PERICENTER = 67.1932
MEAN_ANOMALY   = 216.4848

EPHEMERIS_TYPE = 0
CLASSIFICATION_TYPE = U
NORAD_CAT_ID   = 66223
ELEMENT_SET_NO = 999
REV_AT_EPOCH   = 353
BSTAR          = -.2297064E-1
MEAN_MOTION_DOT = -.2036568E-1
MEAN_MOTION_DDOT = 0

CCSDS_OMM_VERS = 2.0
CREATION_DATE  = 
ORIGINATOR     = 

OBJECT_NAME    = STARLINK-35733
OBJECT_ID      = 2025-244U
CENTER_NAME    = EARTH
REF_FRAME      = TEME
TIME_SYSTEM    = UTC
MEAN_ELEMENT_THEORY = SGP/SGP4

EPOCH          = 2025-11-12T22:00:01.999584
MEAN_MOTION    = 15.65239474
ECCENTRICITY   = .0001008
INCLINATION    = 53.1589
RA_OF_ASC_NODE = 57.2381
ARG_OF_PERICENTER = 61.8272
MEAN_ANOMALY   = 227.6022

EPHEMERIS_TYPE = 0
CLASSIFICATION_TYPE = U
NORAD_CAT_ID   = 66224
ELEMENT_SET_NO = 999
REV_AT_EPOCH   = 342
BSTAR          = -.22983908E-1
MEAN_MOTION_DOT = -.2037572E-1
MEAN_MOTION_DDOT = 0

CCSDS_OMM_VERS = 2.0
CREATION_DATE  = 
ORIGINATOR     = 

OBJECT_NAME    = STARLINK-35734
OBJECT_ID      = 2025-244V
CENTER_NAME    = EARTH
REF_FRAME      = TEME
TIME_SYSTEM    = UTC
MEAN_ELEMENT_THEORY = SGP/SGP4

EPOCH          = 2025-11-12T22:00:01.999584
MEAN_MOTION    = 15.65232362
ECCENTRICITY   = .00009607
INCLINATION    = 53.1589
RA_OF_ASC_NODE = 57.2412
ARG_OF_PERICENTER = 58.2773
MEAN_ANOMALY   = 229.2386

EPHEMERIS_TYPE = 0
CLASSIFICATION_TYPE = U
NORAD_CAT_ID   = 66225
ELEMENT_SET_NO = 999
REV_AT_EPOCH   = 342
BSTAR          = -.22856527E-1
MEAN_MOTION_DOT = -.2027133E-1
MEAN_MOTION_DDOT = 0

