STARLINK-35714          
1 66214U 25244J   25316.91668981 -.02038735  00000+0 -22998-1 0  9991
2 66214  53.1591  57.2694 0001008  66.3472 207.7469 15.65240378  3419
STARLINK-35712          
1 66215U 25244K   25316.91668981 -.02029751  00000+0 -22888-1 0  9998
2 66215  53.1589  57.2614 0000975  60.1113 217.8187 15.65234877  3411
STARLINK-35709          
1 66216U 25244L   25316.91668981 -.02031813  00000+0 -22914-1 0  9991
2 66216  53.1590  57.2816 0001058  71.5859 196.7615 15.65234807  3418
STARLINK-35700          
1 66217U 25244M   25316.91668981 -.02031697  00000+0 -22912-1 0  9990
2 66217  53.1591  57.2777 0000988  63.9106 206.3522 15.65236107  3417
STARLINK-35722          
1 66218U 25244N   25316.91668981 -.02032072  00000+0 -22915-1 0  9992
2 66218  53.1591  57.2737 0001097  69.1876 202.9904 15.65236367  3412
STARLINK-35737          
1 66219U 25244P   25316.91668981 -.02032524  00000+0 -22921-1 0  9992
2 66219  53.1592  57.2659 0001038  62.5041 213.5062 15.65237141  3585
STARLINK-35677          
1 66220U 25244Q   25316.91668981 -.02030240  00000+0 -22893-1 0  9995
2 66220  53.1591  57.2579 0000961  60.3995 219.4457 15.65236167  3417
STARLINK-35704          
1 66221U 25244R   25316.91668981 -.02030109  00000+0 -22892-1 0  9999
2 66221  53.1590  57.2534 0001025  64.2891 217.4734 15.65235059  3413
STARLINK-35666          
1 66222U 25244S   25316.91668981 -.02033917  00000+0 -22935-1 0  9998
2 66222  53.1590  57.2457 0001118  73.4228 212.1680 15.65240586  3533
STARLINK-35664          
1 66223U 25244T   25316.91668981 -.02036568  00000+0 -22971-1 0  9994
2 66223  53.1588  57.2503 0001030  67.1932 216.4848 15.65239581  3534
STARLINK-35733          
1 66224U 25244U   25316.91668981 -.02037572  00000+0 -22984-1 0  9995
2 66224  53.1589  57.2381 0001008  61.8272 227.6022 15.65239474  3420
STARLINK-35734          
1 66225U 25244V   25316.91668981 -.02027133  00000+0 -22857-1 0  9997
2 66225  53.1589  57.2412 0000960  58.2773 229.2386 15.65232362  3428
